[{"OBJECT_NAME":"ONEWEB-0693","OBJECT_ID":"2024-188H","EPOCH":"2026-03-09T20:53:59.006112","MEAN_MOTION":13.17651266,"ECCENTRICITY":0.00014194,"INCLINATION":87.9141,"RA_OF_ASC_NODE":25.627,"ARG_OF_PERICENTER":106.4972,"MEAN_ANOMALY":253.6315,"EPHEMERIS_TYPE":0,"CLASSIFICATION_TYPE":"U","NORAD_CAT_ID":61601,"ELEMENT_SET_NO":999,"REV_AT_EPOCH":7280,"BSTAR":0.00013295968,"MEAN_MOTION_DOT":6.4e-7,"MEAN_MOTION_DDOT":0},{"OBJECT_NAME":"UNKNOWN","OBJECT_ID":"","EPOCH":"2026-03-05T12:42:13.240224","MEAN_MOTION":13.72157259,"ECCENTRICITY":0.05745387,"INCLINATION":81.9701,"RA_OF_ASC_NODE":166.9182,"ARG_OF_PERICENTER":218.8037,"MEAN_ANOMALY":137.0524,"EPHEMERIS_TYPE":0,"CLASSIFICATION_TYPE":"U","NORAD_CAT_ID":270033,"ELEMENT_SET_NO":999,"REV_AT_EPOCH":31338,"BSTAR":0.00083163209,"MEAN_MOTION_DOT":2.536e-5,"MEAN_MOTION_DDOT":0}]
